{"type": "FeatureCollection", "features": [ {"type": "Feature", "properties": {"norad_id": 31303, "name": "FENGYUN 1C DEB", "group": "fengyun-1c-debris", "lat": 56.9353637617171, "lon": 0.04225961641194236, "alt_km": 846.604436109913, "timestamp": "2025-12-23T18:59:32.248727+00:00", "meta": {"OBJECT_NAME": "FENGYUN 1C DEB", "OBJECT_ID": "1999-025BPM", "EPOCH": "2025-12-22T18:53:33.816480", "MEAN_MOTION": 14.11028997, "ECCENTRICITY": 0.00119681, "INCLINATION": 98.7039, "RA_OF_ASC_NODE": 12.679, "ARG_OF_PERICENTER": 125.3157, "MEAN_ANOMALY": 234.9136, "EPHEMERIS_TYPE": 0, "CLASSIFICATION_TYPE": "U", "NORAD_CAT_ID": 31303, "ELEMENT_SET_NO": 999, "REV_AT_EPOCH": 96460, "BSTAR": 8.6007597e-05, "MEAN_MOTION_DOT": 1.12e-06, "MEAN_MOTION_DDOT": 0}, "tle": {"line1": "1 31303U 99025BPM 25356.78719695  .00000112  00000+0  86008-4 0  9997", "line2": "2 31303  98.7039  12.6790 0011968 125.3157 234.9136 14.11028997964607"}}, "geometry": {"type": "Point", "coordinates": [0.04225961641194236, 56.9353637617171]}}, {"type": "Feature", "properties": {"norad_id": 31311, "name": "FENGYUN 1C DEB", "group": "fengyun-1c-debris", "lat": 36.29945514487972, "lon": -94.10728327297971, "alt_km": 789.5118857184525, "timestamp": "2025-12-23T18:59:32.248736+00:00", "meta": {"OBJECT_NAME": "FENGYUN 1C DEB", "OBJECT_ID": "1999-025BPP", "EPOCH": "2025-12-23T05:08:41.187840", "MEAN_MOTION": 14.29829192, "ECCENTRICITY": 0.00176877, "INCLINATION": 98.8519, "RA_OF_ASC_NODE": 78.7333, "ARG_OF_PERICENTER": 55.5558, "MEAN_ANOMALY": 359.0826, "EPHEMERIS_TYPE": 0, "CLASSIFICATION_TYPE": "U", "NORAD_CAT_ID": 31311, "ELEMENT_SET_NO": 999, "REV_AT_EPOCH": 96371, "BSTAR": 0.0017134578, "MEAN_MOTION_DOT": 4.369e-05, "MEAN_MOTION_DDOT": 0}, "tle": {"line1": "1 31311U 99025BPP 25357.21436560  .00004369  00000+0  17135-2 0  9993", "line2": "2 31311  98.8519  78.7333 0017687  55.5558 359.0826 14.29829192963710"}}, "geometry": {"type": "Point", "coordinates": [-94.10728327297971, 36.29945514487972]}}, {"type": "Feature", "properties": {"norad_id": 31312, "name": "FENGYUN 1C DEB", "group": "fengyun-1c-debris", "lat": -59.20675155951815, "lon": 147.95559413505913, "alt_km": 862.9497444007166, "timestamp": "2025-12-23T18:59:32.248746+00:00", "meta": {"OBJECT_NAME": "FENGYUN 1C DEB", "OBJECT_ID": "1999-025BPQ", "EPOCH": "2025-12-15T05:56:52.525824", "MEAN_MOTION": 14.00925702, "ECCENTRICITY": 0.00580012, "INCLINATION": 98.8604, "RA_OF_ASC_NODE": 334.8421, "ARG_OF_PERICENTER": 229.1743, "MEAN_ANOMALY": 146.4845, "EPHEMERIS_TYPE": 0, "CLASSIFICATION_TYPE": "U", "NORAD_CAT_ID": 31312, "ELEMENT_SET_NO": 999, "REV_AT_EPOCH": 95181, "BSTAR": 0.00060391584, "MEAN_MOTION_DOT": 8.73e-06, "MEAN_MOTION_DDOT": 0}, "tle": {"line1": "1 31312U 99025BPQ 25349.24783016  .00000873  00000+0  60392-3 0  9999", "line2": "2 31312  98.8604 334.8421 0058001 229.1743 146.4845 14.00925702951810"}}, "geometry": {"type": "Point", "coordinates": [147.95559413505913, -59.20675155951815]}}, {"type": "Feature", "properties": {"norad_id": 31313, "name": "FENGYUN 1C DEB", "group": "fengyun-1c-debris", "lat": 52.03957322150532, "lon": -109.81894234799441, "alt_km": 816.1921779005625, "timestamp": "2025-12-23T18:59:32.248756+00:00", "meta": {"OBJECT_NAME": "FENGYUN 1C DEB", "OBJECT_ID": "1999-025BPR", "EPOCH": "2025-12-20T23:12:28.357632", "MEAN_MOTION": 14.22284254, "ECCENTRICITY": 0.00450354, "INCLINATION": 99.0155, "RA_OF_ASC_NODE": 259.0356, "ARG_OF_PERICENTER": 157.4964, "MEAN_ANOMALY": 202.8201, "EPHEMERIS_TYPE": 0, "CLASSIFICATION_TYPE": "U", "NORAD_CAT_ID": 31313, "ELEMENT_SET_NO": 999, "REV_AT_EPOCH": 97179, "BSTAR": 0.00025609307, "MEAN_MOTION_DOT": 5.29e-06, "MEAN_MOTION_DDOT": 0}, "tle": {"line1": "1 31313U 99025BPR 25354.96699488  .00000529  00000+0  25609-3 0  9994", "line2": "2 31313  99.0155 259.0356 0045035 157.4964 202.8201 14.22284254971797"}}, "geometry": {"type": "Point", "coordinates": [-109.81894234799441, 52.03957322150532]}}, {"type": "Feature", "properties": {"norad_id": 31314, "name": "FENGYUN 1C DEB", "group": "fengyun-1c-debris", "lat": 45.8388044500321, "lon": -179.30126631520747, "alt_km": 928.0525693740046, "timestamp": "2025-12-23T18:59:32.248765+00:00", "meta": {"OBJECT_NAME": "FENGYUN 1C DEB", "OBJECT_ID": "1999-025BPS", "EPOCH": "2025-12-21T16:47:29.206176", "MEAN_MOTION": 14.04932666, "ECCENTRICITY": 0.00782896, "INCLINATION": 98.8225, "RA_OF_ASC_NODE": 349.4625, "ARG_OF_PERICENTER": 332.2098, "MEAN_ANOMALY": 27.4897, "EPHEMERIS_TYPE": 0, "CLASSIFICATION_TYPE": "U", "NORAD_CAT_ID": 31314, "ELEMENT_SET_NO": 999, "REV_AT_EPOCH": 60940, "BSTAR": 0.00038680028, "MEAN_MOTION_DOT": 5.96e-06, "MEAN_MOTION_DDOT": 0}, "tle": {"line1": "1 31314U 99025BPS 25355.69964359  .00000596  00000+0  38680-3 0  9995", "line2": "2 31314  98.8225 349.4625 0078289 332.2098  27.4897 14.04932666609409"}}, "geometry": {"type": "Point", "coordinates": [-179.30126631520747, 45.8388044500321]}}, {"type": "Feature", "properties": {"norad_id": 31319, "name": "FENGYUN 1C DEB", "group": "fengyun-1c-debris", "lat": -77.3874208628953, "lon": -60.18779690010831, "alt_km": 1079.1457816959646, "timestamp": "2025-12-23T18:59:32.248774+00:00", "meta": {"OBJECT_NAME": "FENGYUN 1C DEB", "OBJECT_ID": "1999-025BPX", "EPOCH": "2025-12-22T22:43:11.253792", "MEAN_MOTION": 13.75832622, "ECCENTRICITY": 0.01706224, "INCLINATION": 98.8312, "RA_OF_ASC_NODE": 255.0196, "ARG_OF_PERICENTER": 59.845, "MEAN_ANOMALY": 359.0356, "EPHEMERIS_TYPE": 0, "CLASSIFICATION_TYPE": "U", "NORAD_CAT_ID": 31319, "ELEMENT_SET_NO": 999, "REV_AT_EPOCH": 93828, "BSTAR": 0.00021018405, "MEAN_MOTION_DOT": 1.88e-06, "MEAN_MOTION_DDOT": 0}, "tle": {"line1": "1 31319U 99025BPX 25356.94665803  .00000188  00000+0  21018-3 0  9995", "line2": "2 31319  98.8312 255.0196 0170622  59.8450 359.0356 13.75832622938287"}}, "geometry": {"type": "Point", "coordinates": [-60.18779690010831, -77.3874208628953]}}, {"type": "Feature", "properties": {"norad_id": 31321, "name": "FENGYUN 1C DEB", "group": "fengyun-1c-debris", "lat": -74.9984003277618, "lon": 111.40798919502976, "alt_km": 869.2263034911839, "timestamp": "2025-12-23T18:59:32.248783+00:00", "meta": {"OBJECT_NAME": "FENGYUN 1C DEB", "OBJECT_ID": "1999-025BPZ", "EPOCH": "2025-12-21T11:18:43.092576", "MEAN_MOTION": 14.13827699, "ECCENTRICITY": 0.00303049, "INCLINATION": 98.7333, "RA_OF_ASC_NODE": 74.1401, "ARG_OF_PERICENTER": 153.2037, "MEAN_ANOMALY": 207.0709, "EPHEMERIS_TYPE": 0, "CLASSIFICATION_TYPE": "U", "NORAD_CAT_ID": 31321, "ELEMENT_SET_NO": 999, "REV_AT_EPOCH": 57507, "BSTAR": 0.00012257196, "MEAN_MOTION_DOT": 1.9e-06, "MEAN_MOTION_DDOT": 0}, "tle": {"line1": "1 31321U 99025BPZ 25355.47133209  .00000190  00000+0  12257-3 0  9993", "line2": "2 31321  98.7333  74.1401 0030304 153.2037 207.0709 14.13827699575072"}}, "geometry": {"type": "Point", "coordinates": [111.40798919502976, -74.9984003277618]}}, {"type": "Feature", "properties": {"norad_id": 31322, "name": "FENGYUN 1C DEB", "group": "fengyun-1c-debris", "lat": 42.413136253215676, "lon": -111.65425020256565, "alt_km": 1145.1815806768172, "timestamp": "2025-12-23T18:59:32.248793+00:00", "meta": {"OBJECT_NAME": "FENGYUN 1C DEB", "OBJECT_ID": "1999-025BQA", "EPOCH": "2025-12-22T10:55:09.812352", "MEAN_MOTION": 13.73001176, "ECCENTRICITY": 0.02380895, "INCLINATION": 98.5721, "RA_OF_ASC_NODE": 59.2277, "ARG_OF_PERICENTER": 344.2123, "MEAN_ANOMALY": 29.7428, "EPHEMERIS_TYPE": 0, "CLASSIFICATION_TYPE": "U", "NORAD_CAT_ID": 31322, "ELEMENT_SET_NO": 999, "REV_AT_EPOCH": 62409, "BSTAR": 0.00020913462, "MEAN_MOTION_DOT": 1.98e-06, "MEAN_MOTION_DDOT": 0}, "tle": {"line1": "1 31322U 99025BQA 25356.45497468  .00000198  00000+0  20913-3 0  9999", "line2": "2 31322  98.5721  59.2277 0238089 344.2123  29.7428 13.73001176624098"}}, "geometry": {"type": "Point", "coordinates": [-111.65425020256565, 42.413136253215676]}}, {"type": "Feature", "properties": {"norad_id": 31323, "name": "FENGYUN 1C DEB", "group": "fengyun-1c-debris", "lat": 62.778078444629315, "lon": 18.288407502150616, "alt_km": 772.0862532804549, "timestamp": "2025-12-23T18:59:32.248802+00:00", "meta": {"OBJECT_NAME": "FENGYUN 1C DEB", "OBJECT_ID": "1999-025BQB", "EPOCH": "2025-12-20T21:43:51.769056", "MEAN_MOTION": 14.27642156, "ECCENTRICITY": 0.0030892, "INCLINATION": 99.4195, "RA_OF_ASC_NODE": 34.0071, "ARG_OF_PERICENTER": 56.5612, "MEAN_ANOMALY": 303.8513, "EPHEMERIS_TYPE": 0, "CLASSIFICATION_TYPE": "U", "NORAD_CAT_ID": 31323, "ELEMENT_SET_NO": 999, "REV_AT_EPOCH": 64097, "BSTAR": 0.0010025, "MEAN_MOTION_DOT": 2.433e-05, "MEAN_MOTION_DDOT": 0}, "tle": {"line1": "1 31323U 99025BQB 25354.90546029  .00002433  00000+0  10025-2 0  9992", "line2": "2 31323  99.4195  34.0071 0030892  56.5612 303.8513 14.27642156640970"}}, "geometry": {"type": "Point", "coordinates": [18.288407502150616, 62.778078444629315]}}, {"type": "Feature", "properties": {"norad_id": 31324, "name": "FENGYUN 1C DEB", "group": "fengyun-1c-debris", "lat": 19.66843859043653, "lon": -83.78588051126276, "alt_km": 853.7286205447062, "timestamp": "2025-12-23T18:59:32.248811+00:00", "meta": {"OBJECT_NAME": "FENGYUN 1C DEB", "OBJECT_ID": "1999-025BQC", "EPOCH": "2025-12-21T14:16:42.684672", "MEAN_MOTION": 14.14700279, "ECCENTRICITY": 0.0048997, "INCLINATION": 99.1242, "RA_OF_ASC_NODE": 277.2633, "ARG_OF_PERICENTER": 278.9209, "MEAN_ANOMALY": 80.6419, "EPHEMERIS_TYPE": 0, "CLASSIFICATION_TYPE": "U", "NORAD_CAT_ID": 31324, "ELEMENT_SET_NO": 999, "REV_AT_EPOCH": 96611, "BSTAR": 0.00014071, "MEAN_MOTION_DOT": 2.27e-06, "MEAN_MOTION_DDOT": 0}, "tle": {"line1": "1 31324U 99025BQC 25355.59493848  .00000227  00000+0  14071-3 0  9994", "line2": "2 31324  99.1242 277.2633 0048997 278.9209  80.6419 14.14700279966112"}}, "geometry": {"type": "Point", "coordinates": [-83.78588051126276, 19.66843859043653]}}]}